{"type": "FeatureCollection", "features": [ {"type": "Feature", "properties": {"norad_id": 37295, "name": "COSMOS 2251 DEB", "group": "cosmos-2251-debris", "lat": 73.56287065594118, "lon": -0.7753587535971733, "alt_km": 639.9714609845114, "timestamp": "2025-12-26T04:40:06.182450+00:00", "meta": {"OBJECT_NAME": "COSMOS 2251 DEB", "OBJECT_ID": "1993-036BJK", "EPOCH": "2025-12-25T16:46:30.932832", "MEAN_MOTION": 14.65312772, "ECCENTRICITY": 0.00441488, "INCLINATION": 74.006, "RA_OF_ASC_NODE": 256.6411, "ARG_OF_PERICENTER": 71.87, "MEAN_ANOMALY": 288.7269, "EPHEMERIS_TYPE": 0, "CLASSIFICATION_TYPE": "U", "NORAD_CAT_ID": 37295, "ELEMENT_SET_NO": 999, "REV_AT_EPOCH": 82494, "BSTAR": 0.00055089823, "MEAN_MOTION_DOT": 2.985e-05, "MEAN_MOTION_DDOT": 0}, "tle": {"line1": "1 37295U 93036BJK 25359.69896913  .00002985  00000+0  55090-3 0  9997", "line2": "2 37295  74.0060 256.6411 0044148  71.8700 288.7269 14.65312772824941"}}, "geometry": {"type": "Point", "coordinates": [-0.7753587535971733, 73.56287065594118]}}, {"type": "Feature", "properties": {"norad_id": 37305, "name": "COSMOS 2251 DEB", "group": "cosmos-2251-debris", "lat": -73.60186790728238, "lon": 165.09671396855228, "alt_km": 752.2305108130977, "timestamp": "2025-12-26T04:40:06.182460+00:00", "meta": {"OBJECT_NAME": "COSMOS 2251 DEB", "OBJECT_ID": "1993-036BJV", "EPOCH": "2025-12-23T00:11:55.974336", "MEAN_MOTION": 14.36169187, "ECCENTRICITY": 0.00495961, "INCLINATION": 73.8701, "RA_OF_ASC_NODE": 271.4675, "ARG_OF_PERICENTER": 230.2466, "MEAN_ANOMALY": 129.4312, "EPHEMERIS_TYPE": 0, "CLASSIFICATION_TYPE": "U", "NORAD_CAT_ID": 37305, "ELEMENT_SET_NO": 999, "REV_AT_EPOCH": 67014, "BSTAR": 0.00056579218, "MEAN_MOTION_DOT": 1.645e-05, "MEAN_MOTION_DDOT": 0}, "tle": {"line1": "1 37305U 93036BJV 25357.00828674  .00001645  00000+0  56579-3 0  9996", "line2": "2 37305  73.8701 271.4675 0049596 230.2466 129.4312 14.36169187670140"}}, "geometry": {"type": "Point", "coordinates": [165.09671396855228, -73.60186790728238]}}, {"type": "Feature", "properties": {"norad_id": 37312, "name": "COSMOS 2251 DEB", "group": "cosmos-2251-debris", "lat": 66.2783545635438, "lon": -140.2644264160778, "alt_km": 742.9574551495443, "timestamp": "2025-12-26T04:40:06.182470+00:00", "meta": {"OBJECT_NAME": "COSMOS 2251 DEB", "OBJECT_ID": "1993-036BKC", "EPOCH": "2025-12-24T20:47:26.400192", "MEAN_MOTION": 14.46161894, "ECCENTRICITY": 0.0018528, "INCLINATION": 74.0296, "RA_OF_ASC_NODE": 181.5439, "ARG_OF_PERICENTER": 283.6542, "MEAN_ANOMALY": 76.2553, "EPHEMERIS_TYPE": 0, "CLASSIFICATION_TYPE": "U", "NORAD_CAT_ID": 37312, "ELEMENT_SET_NO": 999, "REV_AT_EPOCH": 86339, "BSTAR": 0.00042921, "MEAN_MOTION_DOT": 1.51e-05, "MEAN_MOTION_DDOT": 0}, "tle": {"line1": "1 37312U 93036BKC 25358.86627778  .00001510  00000+0  42921-3 0  9998", "line2": "2 37312  74.0296 181.5439 0018528 283.6542  76.2553 14.46161894863392"}}, "geometry": {"type": "Point", "coordinates": [-140.2644264160778, 66.2783545635438]}}, {"type": "Feature", "properties": {"norad_id": 37316, "name": "COSMOS 2251 DEB", "group": "cosmos-2251-debris", "lat": 69.06265054664446, "lon": 125.41478547652142, "alt_km": 560.9947684027175, "timestamp": "2025-12-26T04:40:06.182480+00:00", "meta": {"OBJECT_NAME": "COSMOS 2251 DEB", "OBJECT_ID": "1993-036BKG", "EPOCH": "2025-12-23T10:21:39.448512", "MEAN_MOTION": 14.94918981, "ECCENTRICITY": 0.00294951, "INCLINATION": 74.0191, "RA_OF_ASC_NODE": 359.4944, "ARG_OF_PERICENTER": 63.4834, "MEAN_ANOMALY": 296.9369, "EPHEMERIS_TYPE": 0, "CLASSIFICATION_TYPE": "U", "NORAD_CAT_ID": 37316, "ELEMENT_SET_NO": 999, "REV_AT_EPOCH": 86303, "BSTAR": 0.0022174093, "MEAN_MOTION_DOT": 0.00024458, "MEAN_MOTION_DDOT": 0}, "tle": {"line1": "1 37316U 93036BKG 25357.43170658  .00024458  00000+0  22174-2 0  9997", "line2": "2 37316  74.0191 359.4944 0029495  63.4834 296.9369 14.94918981863037"}}, "geometry": {"type": "Point", "coordinates": [125.41478547652142, 69.06265054664446]}}, {"type": "Feature", "properties": {"norad_id": 37320, "name": "COSMOS 2251 DEB", "group": "cosmos-2251-debris", "lat": -7.3808477870466005, "lon": 13.849906051160396, "alt_km": 635.165393536312, "timestamp": "2025-12-26T04:40:06.182490+00:00", "meta": {"OBJECT_NAME": "COSMOS 2251 DEB", "OBJECT_ID": "1993-036BKL", "EPOCH": "2025-12-22T20:16:00.405696", "MEAN_MOTION": 14.78886663, "ECCENTRICITY": 0.0046926, "INCLINATION": 74.0442, "RA_OF_ASC_NODE": 198.3073, "ARG_OF_PERICENTER": 283.335, "MEAN_ANOMALY": 76.2596, "EPHEMERIS_TYPE": 0, "CLASSIFICATION_TYPE": "U", "NORAD_CAT_ID": 37320, "ELEMENT_SET_NO": 999, "REV_AT_EPOCH": 66296, "BSTAR": 0.000787018, "MEAN_MOTION_DOT": 5.877e-05, "MEAN_MOTION_DDOT": 0}, "tle": {"line1": "1 37320U 93036BKL 25356.84444914  .00005877  00000+0  78702-3 0  9998", "line2": "2 37320  74.0442 198.3073 0046926 283.3350  76.2596 14.78886663662961"}}, "geometry": {"type": "Point", "coordinates": [13.849906051160396, -7.3808477870466005]}}, {"type": "Feature", "properties": {"norad_id": 37326, "name": "COSMOS 2251 DEB", "group": "cosmos-2251-debris", "lat": -71.5620439090213, "lon": -110.28652186622546, "alt_km": 729.8253976456162, "timestamp": "2025-12-26T04:40:06.182500+00:00", "meta": {"OBJECT_NAME": "COSMOS 2251 DEB", "OBJECT_ID": "1993-036BKS", "EPOCH": "2025-12-18T14:41:59.918784", "MEAN_MOTION": 14.6160351, "ECCENTRICITY": 0.00547059, "INCLINATION": 74.0257, "RA_OF_ASC_NODE": 323.4491, "ARG_OF_PERICENTER": 90.7075, "MEAN_ANOMALY": 270.0361, "EPHEMERIS_TYPE": 0, "CLASSIFICATION_TYPE": "U", "NORAD_CAT_ID": 37326, "ELEMENT_SET_NO": 999, "REV_AT_EPOCH": 85569, "BSTAR": 0.00040097011, "MEAN_MOTION_DOT": 2.005e-05, "MEAN_MOTION_DDOT": 0}, "tle": {"line1": "1 37326U 93036BKS 25352.61249906  .00002005  00000+0  40097-3 0  9995", "line2": "2 37326  74.0257 323.4491 0054705  90.7075 270.0361 14.61603510855692"}}, "geometry": {"type": "Point", "coordinates": [-110.28652186622546, -71.5620439090213]}}, {"type": "Feature", "properties": {"norad_id": 37330, "name": "COSMOS 2251 DEB", "group": "cosmos-2251-debris", "lat": 2.093254317720535, "lon": 88.80317751005484, "alt_km": 678.8758762093712, "timestamp": "2025-12-26T04:40:06.182510+00:00", "meta": {"OBJECT_NAME": "COSMOS 2251 DEB", "OBJECT_ID": "1993-036BKW", "EPOCH": "2025-12-24T00:52:02.666208", "MEAN_MOTION": 14.59569552, "ECCENTRICITY": 0.00567424, "INCLINATION": 74.0177, "RA_OF_ASC_NODE": 273.5222, "ARG_OF_PERICENTER": 118.7622, "MEAN_ANOMALY": 241.926, "EPHEMERIS_TYPE": 0, "CLASSIFICATION_TYPE": "U", "NORAD_CAT_ID": 37330, "ELEMENT_SET_NO": 999, "REV_AT_EPOCH": 86533, "BSTAR": 0.00027721204, "MEAN_MOTION_DOT": 1.317e-05, "MEAN_MOTION_DDOT": 0}, "tle": {"line1": "1 37330U 93036BKW 25358.03614197  .00001317  00000+0  27721-3 0  9994", "line2": "2 37330  74.0177 273.5222 0056742 118.7622 241.9260 14.59569552865338"}}, "geometry": {"type": "Point", "coordinates": [88.80317751005484, 2.093254317720535]}}, {"type": "Feature", "properties": {"norad_id": 37331, "name": "COSMOS 2251 DEB", "group": "cosmos-2251-debris", "lat": -13.04362555951871, "lon": -132.94307127085798, "alt_km": 809.271293508491, "timestamp": "2025-12-26T04:40:06.182520+00:00", "meta": {"OBJECT_NAME": "COSMOS 2251 DEB", "OBJECT_ID": "1993-036BKX", "EPOCH": "2025-12-24T11:37:12.375264", "MEAN_MOTION": 14.35050755, "ECCENTRICITY": 0.00553191, "INCLINATION": 74.0736, "RA_OF_ASC_NODE": 46.3907, "ARG_OF_PERICENTER": 56.9806, "MEAN_ANOMALY": 303.6644, "EPHEMERIS_TYPE": 0, "CLASSIFICATION_TYPE": "U", "NORAD_CAT_ID": 37331, "ELEMENT_SET_NO": 999, "REV_AT_EPOCH": 84928, "BSTAR": 0.00040764009, "MEAN_MOTION_DOT": 1.157e-05, "MEAN_MOTION_DDOT": 0}, "tle": {"line1": "1 37331U 93036BKX 25358.48417101  .00001157  00000+0  40764-3 0  9994", "line2": "2 37331  74.0736  46.3907 0055319  56.9806 303.6644 14.35050755849284"}}, "geometry": {"type": "Point", "coordinates": [-132.94307127085798, -13.04362555951871]}}, {"type": "Feature", "properties": {"norad_id": 37336, "name": "COSMOS 2251 DEB", "group": "cosmos-2251-debris", "lat": 59.397218964077766, "lon": -24.410219742090685, "alt_km": 761.1176574918636, "timestamp": "2025-12-26T04:40:06.182530+00:00", "meta": {"OBJECT_NAME": "COSMOS 2251 DEB", "OBJECT_ID": "1993-036BLC", "EPOCH": "2025-12-17T07:33:13.175712", "MEAN_MOTION": 14.32760586, "ECCENTRICITY": 0.00290162, "INCLINATION": 74.0414, "RA_OF_ASC_NODE": 322.8603, "ARG_OF_PERICENTER": 39.1846, "MEAN_ANOMALY": 321.1399, "EPHEMERIS_TYPE": 0, "CLASSIFICATION_TYPE": "U", "NORAD_CAT_ID": 37336, "ELEMENT_SET_NO": 999, "REV_AT_EPOCH": 65185, "BSTAR": 6.9199726e-05, "MEAN_MOTION_DOT": 1.63e-06, "MEAN_MOTION_DDOT": 0}, "tle": {"line1": "1 37336U 93036BLC 25351.31473583  .00000163  00000+0  69200-4 0  9993", "line2": "2 37336  74.0414 322.8603 0029016  39.1846 321.1399 14.32760586651852"}}, "geometry": {"type": "Point", "coordinates": [-24.410219742090685, 59.397218964077766]}}, {"type": "Feature", "properties": {"norad_id": 37340, "name": "COSMOS 2251 DEB", "group": "cosmos-2251-debris", "lat": 51.473987823071575, "lon": 51.31966682837844, "alt_km": 773.5719014205852, "timestamp": "2025-12-26T04:40:06.182540+00:00", "meta": {"OBJECT_NAME": "COSMOS 2251 DEB", "OBJECT_ID": "1993-036BLG", "EPOCH": "2025-12-19T03:19:36.196032", "MEAN_MOTION": 14.36930541, "ECCENTRICITY": 0.00180628, "INCLINATION": 74.0254, "RA_OF_ASC_NODE": 265.3825, "ARG_OF_PERICENTER": 358.9051, "MEAN_ANOMALY": 1.206, "EPHEMERIS_TYPE": 0, "CLASSIFICATION_TYPE": "U", "NORAD_CAT_ID": 37340, "ELEMENT_SET_NO": 999, "REV_AT_EPOCH": 84159, "BSTAR": 0.00014760605, "MEAN_MOTION_DOT": 4.11e-06, "MEAN_MOTION_DDOT": 0}, "tle": {"line1": "1 37340U 93036BLG 25353.13861338  .00000411  00000+0  14761-3 0  9996", "line2": "2 37340  74.0254 265.3825 0018062 358.9051   1.2060 14.36930541841592"}}, "geometry": {"type": "Point", "coordinates": [51.31966682837844, 51.473987823071575]}}]}